INTELSAT 10 (IS-10)     
1 26766U 01019A   26063.89462591 -.00000291  00000+0  00000+0 0  9990
2 26766   8.8270  60.3151 0005957 266.6850 298.7324  0.99041872 44541
INTELSAT 902 (IS-902)   
1 26900U 01039A   26063.34350089 -.00000292  00000+0  00000+0 0  9991
2 26900   5.8522  73.0613 0004553 272.5991 249.9991  1.00272825 89640
INTELSAT 904 (IS-904)   
1 27380U 02007A   26063.33239102 -.00000234  00000+0  00000+0 0  9997
2 27380   6.6586  70.4418 0006117 305.6990 234.1072  1.00273296 50716
DIRECTV 5 (TEMPO 1)     
1 27426U 02023A   26064.07961664 -.00000064  00000+0  00000+0 0  9994
2 27426   4.6122  76.6118 0003621 276.7055  88.0578  1.00272420 87088
INTELSAT 905 (IS-905)   
1 27438U 02027A   26064.18725306  .00000088  00000+0  00000+0 0  9999
2 27438   6.4927  71.0512 0003173 279.5390 102.5539  1.00273968 50320
GALAXY 3C (G-3C)        
1 27445U 02030A   26064.20783702 -.00000160  00000+0  00000+0 0  9990
2 27445   3.4665  79.4508 0001101  24.1752  39.2977  1.00271628 45457
INTELSAT 906 (IS-906)   
1 27513U 02041A   26064.18725389  .00000006  00000+0  00000+0 0  9990
2 27513   5.5382  74.2005 0003228 258.7699 321.5210  1.00272916 85984
GALAXY 13 (HORIZONS-1)  
1 27954U 03044A   26064.26824397  .00000125  00000+0  00000+0 0  9993
2 27954   1.1491  85.2834 0002183 262.0517 122.2241  1.00272960 45530
INTELSAT 10-02          
1 28358U 04022A   26064.22647045 -.00000020  00000+0  00000+0 0  9993
2 28358   0.0180 121.3321 0001309 262.4473 219.6948  1.00272386 79511
DIRECTV 8               
1 28659U 05019A   26064.20307034 -.00000007  00000+0  00000+0 0  9998
2 28659   0.0122 118.5895 0003316 240.0936 118.3000  1.00272868 76034
GALAXY 28 (G-28)        
1 28702U 05022A   26064.22127042 -.00000208  00000+0  00000+0 0  9995
2 28702   3.0302  80.2386 0002288 265.6191 229.6685  1.00271813 50934
GALAXY 16 (G-16)        
1 29236U 06023A   26064.20705701 -.00000135  00000+0  00000+0 0  9991
2 29236   0.0424 232.7228 0002542 115.0303 150.7068  1.00272852 71930
DIRECTV 9S              
1 29494U 06043A   26064.20662368 -.00000121  00000+0  00000+0 0  9995
2 29494   2.1525  82.1917 0003170 270.5730 143.3505  1.00272317 50344
GALAXY 17 (G-17)        
1 31307U 07016B   26064.20983036 -.00000214  00000+0  00000+0 0  9993
2 31307   2.7087  81.2304 0003332 266.0102 166.2424  1.00271958 68761
DIRECTV 10              
1 31862U 07032A   26064.23531050 -.00000030  00000+0  00000+0 0  9991
2 31862   0.1340 100.6284 0006640 274.1552 276.7672  0.98337207 44546
INTELSAT 11 (IS-11)     
1 32253U 07044B   26064.27075732  .00000055  00000+0  00000+0 0  9999
2 32253   3.2948  79.9497 0005025 206.2183 196.9975  0.99049289 67427
HORIZONS-2              
1 32388U 07063B   26064.06942973 -.00000262  00000+0  00000+0 0  9997
2 32388   2.3337  81.9452 0002808 258.1305 133.9283  1.00271542 66772
DIRECTV 11              
1 32729U 08013A   26064.15391735 -.00000134  00000+0  00000+0 0  9994
2 32729   0.0166 327.4386 0000280  26.8381 124.8238  1.00271778 44558
GALAXY 18 (G-18)        
1 32951U 08024A   26064.27361733  .00000000  00000+0  00000+0 0  9992
2 32951   0.0232 160.1008 0003220 209.9997 128.4281  1.00271242 44819
INTELSAT 25 (IS-25)     
1 33153U 08034A   26064.17683491 -.00000232  00000+0  00000+0 0  9993
2 33153   2.4394  81.6096 0003705 246.6817 226.7636  1.00270313 64658
GALAXY 19 (G-19)        
1 33376U 08045A   26064.20749036 -.00000148  00000+0  00000+0 0  9990
2 33376   0.0473 263.2411 0003152  96.3188 141.0610  1.00271887 63863
FM-5                    
1 35493U 09034A   26064.03864367 -.00000209  00000+0  00000+0 0  9995
2 35493   0.0375 271.8439 0000811 316.8973 221.7677  1.00270109 45597
INTELSAT 14 (IS-14)     
1 36097U 09064A   26064.21771707 -.00000282  00000+0  00000+0 0  9995
2 36097   0.0231  93.3191 0002619 268.2767 194.7216  1.00271079 59567
INTELSAT 15 (IS-15)     
1 36106U 09067A   26063.75322707 -.00000195  00000+0  00000+0 0  9992
2 36106   0.0197 204.6455 0002400 150.0110 164.1279  1.00269962 40183
DIRECTV 12              
1 36131U 09075A   26064.20636368 -.00000112  00000+0  00000+0 0  9990
2 36131   0.0177 336.9416 0000363  38.6187 118.9532  1.00271993 45514
INTELSAT 16 (IS-16)     
1 36397U 10006A   26064.06890973 -.00000254  00000+0  00000+0 0  9995
2 36397   0.0210 114.6643 0002010 240.2241 116.5039  1.00270641 58612
XM-5                    
1 37185U 10053A   26064.15947523 -.00000032  00000+0  00000+0 0  9991
2 37185   0.0653 274.6119 0003262 251.9262 298.5463  1.00270380 56447
INTELSAT 17 (IS-17)     
1 37238U 10065B   26064.24142066 -.00000010  00000+0  00000+0 0  9998
2 37238   0.0179 192.5642 0002486 156.9537 326.3546  1.00272701 52205
INTELSAT 28 (IS-28)     
1 37392U 11016A   26064.22040375 -.00000233  00000+0  00000+0 0  9991
2 37392   1.5374  83.9737 0004652 259.2525 227.3651  1.00272317 52242
INTELSAT 18 (IS-18)     
1 37834U 11056A   26064.26235061  .00000044  00000+0  00000+0 0  9997
2 37834   0.0414 269.8463 0001942  70.0367  97.5393  1.00273962 52769
INTELSAT 22 (IS-22)     
1 38098U 12011A   26063.86794664 -.00000069  00000+0  00000+0 0  9994
2 38098   0.0193 219.8398 0001599 145.7888 181.5541  1.00273703  6147
INTELSAT 19 (IS-19)     
1 38356U 12030A   26064.19420204  .00000000  00000+0  00000+0 0  9999
2 38356   0.0250 147.0352 0003143 215.5411  36.2861  1.00270398 49409
INTELSAT 20 (IS-20)     
1 38740U 12043A   26063.75511131 -.00000036  00000+0  00000+0 0  9991
2 38740   0.0192 138.3024 0002245  34.7865 329.7427  1.00277570 49706
INTELSAT 21 (IS-21)     
1 38749U 12045A   26064.28644405 -.00000293  00000+0  00000+0 0  9997
2 38749   0.0308 256.7283 0001781  96.9834 214.4198  1.00270495 49485
INTELSAT 23 (IS-23)     
1 38867U 12057A   26064.18794751 -.00000293  00000+0  00000+0 0  9990
2 38867   0.0519 263.2099 0001204  85.6198 188.7522  1.00270303 48915
FM-6                    
1 39360U 13058A   26063.95114202 -.00000026  00000+0  00000+0 0  9996
2 39360   0.0237 126.4779 0002860  55.9964 206.4240  1.00269084 45024
INTELSAT 30 (IS-30)     
1 40271U 14062A   26064.15391735 -.00000159  00000+0  00000+0 0  9993
2 40271   0.0190  82.0551 0001351  24.0226  17.1701  1.00270863  5754
DIRECTV 14              
1 40333U 14078B   26063.35669706 -.00000138  00000+0  00000+0 0  9993
2 40333   0.0203 123.6906 0000258  52.3431  15.2398  1.00276103 40990
DIRECTV 15              
1 40663U 15026A   26064.27760401 -.00000110  00000+0  00000+0 0  9999
2 40663   0.0215 104.4429 0000469 109.1536 306.4648  1.00269995 39427
SKY MEXICO-1            
1 40664U 15026B   26064.21104370 -.00000243  00000+0  00000+0 0  9998
2 40664   0.0210 125.1141 0002247 239.0108 155.9854  1.00269545 39414
INTELSAT 34 (IS-34)     
1 40874U 15039A   26064.18794751 -.00000294  00000+0  00000+0 0  9995
2 40874   0.0204 249.6555 0000142 206.4616  78.9712  1.00270492 38582
INTELSAT 31 (IS-31)     
1 41581U 16035A   26064.20783702 -.00000159  00000+0  00000+0 0  9995
2 41581   0.0362 247.2387 0001686 348.1997 267.2701  1.00271071 35649
INTELSAT 36 (IS-36)     
1 41747U 16053A   26064.24142066 -.00000032  00000+0  00000+0 0  9995
2 41747   0.0155  86.6285 0001199 239.7885 351.9528  1.00270816 34918
INTELSAT 32E (IS-32E)   
1 41945U 17007B   26063.33794595 -.00000281  00000+0  00000+0 0  9990
2 41945   0.0172 127.0773 0000386 135.5633 337.9102  1.00269658 33171
INTELSAT 35E (IS-35E)   
1 42818U 17041A   26064.17683491 -.00000247  00000+0  00000+0 0  9995
2 42818   0.0257 241.7413 0002225 103.6087 206.6953  1.00270890 31773
INTELSAT 37E (IS-37E)   
1 42950U 17059A   26064.18239259 -.00000150  00000+0  00000+0 0  9994
2 42950   0.0085 107.7768 0002156 235.3434 227.4473  1.00271578 31025
AZERSPACE 2 (IS-38)     
1 43632U 18074A   26064.23539716  .00000000  00000+0  00000+0 0  9990
2 43632   0.0249 144.8365 0001446 215.2621 292.7357  1.00271096 27404
HORIZONS-3E             
1 43633U 18074B   26064.19420204  .00000000  00000+0  00000+0 0  9997
2 43633   0.0086 164.0541 0000546 193.4122  44.3725  1.00270199 27297
AT&T T-16               
1 44333U 19034A   26064.15391735 -.00000124  00000+0  00000+0 0  9992
2 44333   0.0260  99.4351 0000898  70.8775 307.1124  1.00273465 24593
INTELSAT 39 (IS-39)     
1 44476U 19049B   26064.24142066  .00000000  00000+0  00000+0 0  9999
2 44476   0.0243 150.8895 0000710 354.7393 166.2070  1.00269573 24083
GALAXY 30 (G-30)        
1 46114U 20056C   26064.27318398  .00000000  00000+0  00000+0 0  9996
2 46114   0.0228 160.9213 0002065 191.7050 143.7425  1.00271117 20253
GALAXY 33 (G-33)        
1 54026U 22128A   26064.01780892  .00000000  00000+0  00000+0 0  9993
2 54026   0.0175 165.2977 0001884 177.9169  52.9895  1.00273895 12691
GALAXY 34 (G-34)        
1 54027U 22128B   26064.09072645  .00000050  00000+0  00000+0 0  9997
2 54027   0.0130 129.5428 0001376 217.6718  79.2813  1.00273187 12860
GALAXY 31 (G-31)        
1 54243U 22153A   26064.20272367  .00000004  00000+0  00000+0 0  9990
2 54243   0.0113 189.4745 0001500 166.9254 118.5102  1.00272758  6097
GALAXY 32 (G-32)        
1 54244U 22153B   26063.18586578  .00000000  00000+0  00000+0 0  9995
2 54244   0.0222 132.7365 0003004 225.3208 139.8078  1.00267915 12092
GALAXY 35 (G-35)        
1 54741U 22170A   26064.20818369 -.00000171  00000+0  00000+0 0  9996
2 54741   0.0126 193.9299 0002031 151.6515 159.1994  1.00271036 11857
GALAXY 36 (G-36)        
1 54742U 22170B   26064.20905036 -.00000194  00000+0  00000+0 0  9990
2 54742   0.0169 140.9074 0002042 257.4067 110.8733  1.00272423 11730
GALAXY 37 (G-37)        
1 57493U 23112A   26064.09072645  .00000039  00000+0  00000+0 0  9998
2 57493   0.0201 120.7857 0002051 227.8815  79.8085  1.00272675  9493
